NORAD_CAT_ID,OBJECT_NAME,OBJECT_TYPE,EPOCH,MEAN_MOTION,ECCENTRICITY,INCLINATION,RA_OF_ASC_NODE,ARG_OF_PERICENTER,MEAN_ANOMALY,BSTAR,MEAN_MOTION_DOT,MEAN_MOTION_DDOT,TLE_LINE0,TLE_LINE1,TLE_LINE2,SEMIMAJOR_AXIS,PERIOD,APOGEE,PERIGEE,DECAYED
52491.0,STARLINK-3908,PAYLOAD,2024-03-16 03:53:53,15.08846297,0.0001443,53.2175,57.1558,104.4105,255.7047,8.4538e-05,1.058e-05,0.0,0 STARLINK-3908,1 52491U 22049AS  24076.16241968  .00001058  00000-0  84538-4 0  9990,2 52491  53.2175  57.1558 0001443 104.4105 255.7047 15.08846297103323,6917.861,95.437,540.724,538.728,0.0
52491.0,STARLINK-3908,PAYLOAD,2024-03-16 08:40:02,15.08845544,0.0001547,53.2176,56.2634,108.2109,251.9051,0.00013965,1.936e-05,0.0,0 STARLINK-3908,1 52491U 22049AS  24076.36113836  .00001936  00000-0  13965-3 0  9994,2 52491  53.2176  56.2634 0001547 108.2109 251.9051 15.08845544103192,6917.863,95.437,540.799,538.658,0.0
52491.0,STARLINK-3908,PAYLOAD,2024-03-17 05:20:03,15.08837777,0.0001575,53.2187,52.3949,111.0432,249.0729,6.1606e-05,6.93e-06,0.0,0 STARLINK-3908,1 52491U 22049AS  24077.22226648  .00000693  00000-0  61606-4 0  9991,2 52491  53.2187  52.3949 0001575 111.0432 249.0729 15.08837777103483,6917.887,95.438,540.842,538.663,0.0
52491.0,STARLINK-3908,PAYLOAD,2024-03-17 08:30:50,15.08837812,0.0001677,53.219,51.8005,114.3145,245.8023,4.1138e-05,3.67e-06,0.0,0 STARLINK-3908,1 52491U 22049AS  24077.35474690  .00000367  00000-0  41138-4 0  9993,2 52491  53.2190  51.8005 0001677 114.3145 245.8023 15.08837812103340,6917.887,95.438,540.912,538.592,0.0
52491.0,STARLINK-3908,PAYLOAD,2024-03-18 03:35:27,15.08838141,0.0001584,53.2197,48.2315,103.4072,256.7096,1.5463e-05,-4.2e-07,0.0,0 STARLINK-3908,1 52491U 22049AS  24078.14962858 -.00000042  00000-0  15463-4 0  9992,2 52491  53.2197  48.2315 0001584 103.4072 256.7096 15.08838141103466,6917.886,95.438,540.847,538.655,0.0
52491.0,STARLINK-3908,PAYLOAD,2024-03-19 03:26:14,15.08839325,0.0001503,53.2193,43.7726,103.2576,256.8584,7.4345e-05,8.95e-06,0.0,0 STARLINK-3908,1 52491U 22049AS  24079.14322914  .00000895  00000-0  74345-4 0  9995,2 52491  53.2193  43.7726 0001503 103.2576 256.8584 15.08839325103778,6917.882,95.438,540.787,538.708,0.0
52491.0,STARLINK-3908,PAYLOAD,2024-03-19 05:01:37,15.0884315,0.0001435,53.2193,43.4755,91.2445,268.8712,9.9651e-05,1.298e-05,0.0,0 STARLINK-3908,1 52491U 22049AS  24079.20946678  .00001298  00000-0  99651-4 0  9996,2 52491  53.2193  43.4755 0001435  91.2445 268.8712 15.08843150103623,6917.871,95.437,540.728,538.743,0.0
52491.0,STARLINK-3908,PAYLOAD,2024-03-20 01:41:39,15.08832662,0.0001407,53.2197,39.6121,101.4259,258.6891,3.5816e-05,2.82e-06,0.0,0 STARLINK-3908,1 52491U 22049AS  24080.07059848  .00000282  00000-0  35816-4 0  9992,2 52491  53.2197  39.6121 0001407 101.4259 258.6891 15.08832662103910,6917.903,95.438,540.741,538.794,0.0
52491.0,STARLINK-3908,PAYLOAD,2024-03-20 06:27:50,15.08819792,0.000123,53.2196,38.7214,73.429,286.6837,-4.946e-05,-1.074e-05,0.0,0 STARLINK-3908,1 52491U 22049AS  24080.26933154 -.00001074  00000-0 -49460-4 0  9996,2 52491  53.2196  38.7214 0001230  73.4290 286.6837 15.08819792103942,6917.942,95.439,540.658,538.956,0.0
52491.0,STARLINK-3908,PAYLOAD,2024-03-21 03:07:50,15.08838761,0.0001231,53.2199,34.8589,73.7495,286.3633,4.7569e-05,4.69e-06,0.0,0 STARLINK-3908,1 52491U 22049AS  24081.13044298  .00000469  00000-0  47569-4 0  9998,2 52491  53.2199  34.8589 0001231  73.7495 286.3633 15.08838761104071,6917.884,95.438,540.601,538.898,0.0
52491.0,STARLINK-3908,PAYLOAD,2024-03-21 06:18:35,15.08856382,0.000143,53.2201,34.2604,77.1403,282.9749,0.00019141,2.761e-05,0.0,0 STARLINK-3908,1 52491U 22049AS  24081.26290842  .00002761  00000-0  19141-3 0  9991,2 52491  53.2201  34.2604 0001430  77.1403 282.9749 15.08856382104096,6917.83,95.437,540.685,538.706,0.0
52491.0,STARLINK-3908,PAYLOAD,2024-03-21 14:15:31,15.08848573,0.0001518,53.2208,32.77,90.9874,269.1293,0.00015929,2.249e-05,0.0,0 STARLINK-3908,1 52491U 22049AS  24081.59411294  .00002249  00000-0  15929-3 0  9994,2 52491  53.2208  32.7700 0001518  90.9874 269.1293 15.08848573103986,6917.854,95.437,540.769,538.669,0.0
52491.0,STARLINK-3908,PAYLOAD,2024-03-21 20:37:03,15.08839304,0.0001022,53.2182,31.5869,101.2937,258.817,0.00029914,4.476e-05,0.0,0 STARLINK-3908,1 52491U 22049AS  24081.85907339  .00004476  00000-0  29914-3 0  9996,2 52491  53.2182  31.5869 0001022 101.2937 258.8170 15.08839304104180,6917.883,95.438,540.455,539.041,0.0
52491.0,STARLINK-3908,PAYLOAD,2024-03-22 02:58:35,15.08856951,0.0001534,53.2202,30.3959,114.3229,245.7923,0.00044066,6.735e-05,0.0,0 STARLINK-3908,1 52491U 22049AS  24082.12401791  .00006735  00000-0  44066-3 0  9993,2 52491  53.2202  30.3959 0001534 114.3229 245.7923 15.08856951104220,6917.829,95.436,540.755,538.632,0.0
52491.0,STARLINK-3908,PAYLOAD,2024-03-22 06:09:21,15.08870663,0.0001247,53.218,29.7984,118.579,241.5328,0.00069129,0.0001074,0.0,0 STARLINK-3908,1 52491U 22049AS  24082.25650070  .00010740  00000-0  69129-3 0  9991,2 52491  53.2180  29.7984 0001247 118.5790 241.5328 15.08870663104088,6917.787,95.436,540.514,538.789,0.0
52491.0,STARLINK-3908,PAYLOAD,2024-03-23 01:14:00,15.08847616,0.0001622,53.2195,26.2287,109.8912,250.2255,-7.3353e-05,-1.456e-05,0.0,0 STARLINK-3908,1 52491U 22049AS  24083.05138897 -.00001456  00000-0 -73353-4 0  9999,2 52491  53.2195  26.2287 0001622 109.8912 250.2255 15.08847616104367,6917.857,95.437,540.844,538.6,0.0
52491.0,STARLINK-3908,PAYLOAD,2024-03-23 06:00:09,15.0884943,0.000171,53.2198,25.3356,112.7113,247.4061,-2.5914e-05,-7.01e-06,0.0,0 STARLINK-3908,1 52491U 22049AS  24083.25010686 -.00000701  00000-0 -25914-4 0  9998,2 52491  53.2198  25.3356 0001710 112.7113 247.4061 15.08849430104236,6917.852,95.437,540.9,538.534,0.0
52491.0,STARLINK-3908,PAYLOAD,2024-03-24 12:12:28,15.08843254,0.0002005,53.2196,19.6898,73.1164,287.0047,-0.00020244,-3.509e-05,0.0,0 STARLINK-3908,1 52491U 22049AS  24084.50866427 -.00003509  00000-0 -20244-3 0  9998,2 52491  53.2196  19.6898 0002005  73.1164 287.0047 15.08843254104585,6917.87,95.437,541.122,538.348,0.0
52491.0,STARLINK-3908,PAYLOAD,2024-03-24 20:09:25,15.08825554,0.0002031,53.2193,18.2093,92.1171,268.0054,-0.00016367,-2.891e-05,0.0,0 STARLINK-3908,1 52491U 22049AS  24084.83988284 -.00002891  00000-0 -16367-3 0  9994,2 52491  53.2193  18.2093 0002031  92.1171 268.0054 15.08825554104638,6917.925,95.438,541.195,538.385,0.0
52491.0,STARLINK-3908,PAYLOAD,2024-03-25 05:41:44,15.08836429,0.0001216,53.2184,16.4148,68.4518,291.6603,9.5094e-05,1.226e-05,0.0,0 STARLINK-3908,1 52491U 22049AS  24085.23731584  .00001226  00000-0  95094-4 0  9992,2 52491  53.2184  16.4148 0001216  68.4518 291.6603 15.08836429104695,6917.891,95.438,540.598,538.915,0.0
52491.0,STARLINK-3908,PAYLOAD,2024-03-25 12:03:16,15.08836776,0.000121,53.2167,15.2277,78.6157,281.4971,7.5888e-05,9.2e-06,0.0,0 STARLINK-3908,1 52491U 22049AS  24085.50227703  .00000920  00000-0  75888-4 0  9994,2 52491  53.2167  15.2277 0001210  78.6157 281.4971 15.08836776104579,6917.89,95.438,540.592,538.918,0.0
52491.0,STARLINK-3908,PAYLOAD,2024-03-26 11:54:03,15.08854561,0.0001449,53.2191,10.7687,78.2273,281.8881,0.00020505,2.978e-05,0.0,0 STARLINK-3908,1 52491U 22049AS  24086.49587040  .00002978  00000-0  20505-3 0  9996,2 52491  53.2191  10.7687 0001449  78.2273 281.8881 15.08854561104880,6917.836,95.437,540.703,538.698,0.0
52491.0,STARLINK-3908,PAYLOAD,2024-03-26 23:01:46,15.0883677,0.0002252,53.2201,8.6883,72.3561,287.7677,0.00040512,6.165e-05,0.0,0 STARLINK-3908,1 52491U 22049AS  24086.95956280  .00006165  00000-0  40512-3 0  9995,2 52491  53.2201   8.6883 0002252  72.3561 287.7677 15.08836770104794,6917.89,95.438,541.313,538.197,0.0
52491.0,STARLINK-3908,PAYLOAD,2024-03-27 02:12:31,15.08851658,0.00015,53.2184,8.0963,77.4225,282.6935,0.00030873,4.63e-05,0.0,0 STARLINK-3908,1 52491U 22049AS  24087.09203331  .00004630  00000-0  30873-3 0  9997,2 52491  53.2184   8.0963 0001500  77.4225 282.6935 15.08851658104978,6917.845,95.437,540.747,538.672,0.0
52491.0,STARLINK-3908,PAYLOAD,2024-03-27 11:44:50,15.08840039,0.0001359,53.2182,6.3091,81.612,278.5026,6.2863e-05,7.13e-06,0.0,0 STARLINK-3908,1 52491U 22049AS  24087.48947717  .00000713  00000-0  62863-4 0  9996,2 52491  53.2182   6.3091 0001359  81.6120 278.5026 15.08840039105036,6917.88,95.438,540.685,538.805,0.0
52491.0,STARLINK-3908,PAYLOAD,2024-03-27 18:06:24,15.08831675,0.0001175,53.2183,5.1227,92.5105,267.6022,0.00012298,1.67e-05,0.0,0 STARLINK-3908,1 52491U 22049AS  24087.75444466  .00001670  00000-0  12298-3 0  9998,2 52491  53.2183   5.1227 0001175  92.5105 267.6022 15.08831675105070,6917.906,95.438,540.584,538.958,0.0
52491.0,STARLINK-3908,PAYLOAD,2024-03-28 03:38:42,15.08851461,0.0001351,53.2195,3.3348,86.2421,273.8726,2.2975e-05,7.8e-07,0.0,0 STARLINK-3908,1 52491U 22049AS  24088.15187529  .00000078  00000-0  22975-4 0  9992,2 52491  53.2195   3.3348 0001351  86.2421 273.8726 15.08851461105136,6917.845,95.437,540.645,538.776,0.0
52491.0,STARLINK-3908,PAYLOAD,2024-03-28 17:57:11,15.08832227,0.0001577,53.2204,0.6599,85.4884,274.6288,-1.2056e-06,-3.07e-06,0.0,0 STARLINK-3908,1 52491U 22049AS  24088.74804988 -.00000307  00000-0 -12056-5 0  9999,2 52491  53.2204   0.6599 0001577  85.4884 274.6288 15.08832227105220,6917.904,95.438,540.86,538.678,0.0
52491.0,STARLINK-3908,PAYLOAD,2024-03-28 22:43:20,15.08837587,0.0001868,53.2196,359.7686,94.1366,265.9839,4.084e-05,3.62e-06,0.0,0 STARLINK-3908,1 52491U 22049AS  24088.94676493  .00000362  00000-0  40840-4 0  9999,2 52491  53.2196 359.7686 0001868  94.1366 265.9839 15.08837587105094,6917.888,95.438,541.045,538.461,0.0
52491.0,STARLINK-3908,PAYLOAD,2024-03-29 03:29:29,15.08852201,0.0001381,53.2196,358.8739,87.9343,272.1808,4.2151e-05,3.83e-06,0.0,0 STARLINK-3908,1 52491U 22049AS  24089.14547524  .00000383  00000-0  42151-4 0  9994,2 52491  53.2196 358.8739 0001381  87.9343 272.1808 15.08852201105285,6917.843,95.437,540.663,538.753,0.0
